APSTAR 5 (TELSTAR 18)   
1 28364U 04024A   17144.67748256 -.00000299  00000-0  00000-0 0  9996
2 28364   0.0600  98.9228 0002876 325.2359 200.1966  1.00271060 47429
ANIK F2                 
1 28378U 04027A   17144.34554918 -.00000054  00000-0  00000-0 0  9997
2 28378   0.0278  23.3917 0000230 228.4123   3.6562  1.00271198 47157
AMAZONAS 1              
1 28393U 04031A   17144.29424170 -.00000251  00000-0  00000-0 0  9998
2 28393   1.7031  83.8016 0004090 349.0127 238.8880  1.00268484 46879
AMC-15                  
1 28446U 04041A   17144.53348480 -.00000093  00000-0  00000-0 0  9998
2 28446   0.0493  77.9442 0002117 353.8261 257.5511  1.00270983 46190
AMC-16                  
1 28472U 04048A   17144.41854810 -.00000210  00000-0  00000-0 0  9991
2 28472   0.0320  46.1814 0002209  19.6861 242.0143  1.00270624 45566
NSS-10 (AMC-12)         
1 28526U 05003A   17144.30069622 -.00000255  00000-0  00000-0 0  9999
2 28526   0.0166 331.3547 0002601  97.2815 244.2566  1.00271509 19986
XTAR-EUR                
1 28542U 05005A   17144.24722457  .00000147  00000-0  00000-0 0  9993
2 28542   0.0587 102.7527 0002292 313.2756 304.0051  1.00272216 44988
XM-3 (RHYTHM)           
1 28626U 05008A   17144.35393380 -.00000209  00000-0  00000-0 0  9990
2 28626   0.0064  57.3940 0000220 212.2821  14.7432  1.00269811  9442
INMARSAT 4-F1           
1 28628U 05009A   17143.96127194 -.00000266  00000-0  00000-0 0  9990
2 28628   2.8742  11.6825 0002931  53.3221 306.3124  1.00271251 44472
APSTAR 6                
1 28638U 05012A   17144.92451566 -.00000324  00000-0  00000-0 0  9990
2 28638   0.0402  75.2106 0002542   7.9574 266.3822  1.00272292 69213
SPACEWAY 1              
1 28644U 05015A   17144.34097956 -.00000107  00000-0  00000-0 0  9994
2 28644   0.0423 130.2284 0000158 151.7362 340.0185  1.00271873 44316
DIRECTV 8               
1 28659U 05019A   17143.60966823 -.00000119  00000-0  00000-0 0  9993
2 28659   0.0110   2.3811 0002818  57.6954 299.9639  1.00271419 43980
GALAXY 28 (G-28)        
1 28702U 05022A   17144.35393380 -.00000189  00000-0  00000-0 0  9998
2 28702   0.0163 350.0130 0001615  37.3116 253.2218  1.00270254 43626
EXPRESS-AM3             
1 28707U 05023A   17144.85396583 -.00000327  00000-0  00000-0 0  9991
2 28707   0.0246 276.7515 0001005 173.5567 202.7528  1.00270211 43659
THAICOM 4               
1 28786U 05028A   17144.53252361 -.00000368  00000-0  00000-0 0  9998
2 28786   0.0185 333.0289 0001976  90.6202 129.8810  1.00271315 43126
GALAXY 14 (G-14)        
1 28790U 05030A   17144.55058031  .00000032  00000-0  00000-0 0  9993
2 28790   0.0204 321.7931 0002136 100.9993 252.7581  1.00273066 43106
ANIK F1R                
1 28868U 05036A   17144.52903850 -.00000079  00000-0  00000-0 0  9992
2 28868   0.0559  88.0013 0002877 331.3884 266.0880  1.00272011 42951
GALAXY 15 (G-15)        
1 28884U 05041A   17144.51346542  .00000074  00000-0  00000-0 0  9998
2 28884   0.0212 314.4462 0001159 101.1269 238.5762  1.00273741 42427
SYRACUSE 3A             
1 28885U 05041B   17144.69791250  .00000123  00000-0  00000-0 0  9993
2 28885   0.0111   1.2086 0003066  70.6286 108.8771  1.00271498 42568
INMARSAT 4-F2           
1 28899U 05044A   17144.18135078  .00000005  00000-0  00000-0 0  9994
2 28899   2.5686  11.5758 0002353  56.2303 303.3445  1.00272285 42324
TELKOM 2                
1 28902U 05046A   17144.86121758 -.00000128  00000-0  00000-0 0  9993
2 28902   0.0599 114.1093 0005841  46.0448 185.5268  1.00518799 42044
SPACEWAY 2              
1 28903U 05046B   17144.33836213 -.00000131  00000-0  00000-0 0  9999
2 28903   0.0338 122.6386 0000033  99.5069  42.7280  1.00271027 42290
INSAT-4A                
1 28911U 05049A   17144.09756001 -.00000169  00000-0  00000-0 0  9991
2 28911   0.0161 311.1833 0002174  13.3213  35.4929  1.00270939 12521
METEOSAT-9 (MSG-2)      
1 28912U 05049B   17144.18612094  .00000060  00000-0  00000-0 0  9994
2 28912   2.1574  70.9473 0000799 104.1091 143.4090  1.00278099 41871
EUTELSAT 172A (GE-23)   
1 28924U 05052A   17144.55198885 -.00000011  00000-0  00000-0 0  9996
2 28924   0.0667   6.5479 0005718  55.5162 190.9804  1.00271202 19154
ECHOSTAR 10             
1 28935U 06003A   17143.52209149 -.00000058  00000-0  00000-0 0  9998
2 28935   0.0446  95.4960 0001194 314.9123 268.6692  1.00270987 41271
HIMAWARI-7 (MTSAT-2)    
1 28937U 06004A   17144.86242219 -.00000248  00000-0  00000-0 0  9995
2 28937   0.0003  92.2882 0003696 340.1765 265.6904  1.00272786 41285
SPAINSAT                
1 28945U 06007A   17144.41059323 -.00000220  00000-0  00000-0 0  9990
2 28945   0.0228 235.4846 0002460 203.4540 281.1004  1.00271311 41034
EUTELSAT HOT BIRD 13E   
1 28946U 06007B   17144.29148465  .00000082  00000-0  00000-0 0  9998
2 28946   0.0275 252.5720 0003722 213.5728 253.9077  1.00268472 41109
JCSAT-5A                
1 29045U 06010A   17144.91368698 -.00000334  00000-0  00000-0 0  9995
2 29045   0.0161 307.9337 0001390 106.1667 289.5637  1.00270551 40580
ASTRA 1KR               
1 29055U 06012A   17144.87671024  .00000114  00000-0  00000-0 0  9998
2 29055   0.0386 283.0134 0000112 277.1439  17.2977  1.00270428 12536
GOES 13                 
1 29155U 06018A   17144.53443316 -.00000254  00000-0  00000-0 0  9995
2 29155   0.2264 273.5242 0005352 161.9353 284.6117  1.00265309 10192
EUTELSAT 113 WEST A     
1 29162U 06020A   17143.64335921 -.00000041  00000-0  00000-0 0  9993
2 29162   0.0146 265.2034 0002843 156.1610 298.6766  1.00272512 40279
THAICOM 5               
1 29163U 06020B   17143.92654319 -.00000125  00000-0  00000-0 0  9993
2 29163   0.0385 278.4147 0002694 137.3124 238.0662  1.00270341 40328
GALAXY 16 (G-16)        
1 29236U 06023A   17143.34680553 -.00000129  00000-0  00000-0 0  9996
2 29236   0.0276  83.1048 0002508 351.6998 192.1717  1.00268869 40023
EUTELSAT HOT BIRD 13B   
1 29270U 06032A   17144.01278591  .00000083  00000-0  00000-0 0  9992
2 29270   0.0659 347.3050 0004768  49.7151 222.3969  1.00270867 39653
JCSAT-3A                
1 29272U 06033A   17144.91368698 -.00000351  00000-0  00000-0 0  9991
2 29272   0.0168 357.5138 0001521  72.1001 270.0088  1.00270227 14541
SYRACUSE 3B             
1 29273U 06033B   17143.23938569 -.00000047  00000-0  00000-0 0  9998
2 29273   0.0095 323.7377 0004306  81.4046 276.8755  1.00272566 39536
KOREASAT 5 (MUGUNGWHA 5)
1 29349U 06034A   17144.83729909 -.00000364  00000-0  00000-0 0  9998
2 29349   0.0236  48.6507 0001157  75.2845 173.1800  1.00270411  8122
ZHONGXING-22A           
1 29398U 06038A   17143.91087797 -.00000324  00000-0  00000-0 0  9992
2 29398   5.7464  57.8940 0000380 179.6342  73.8633  1.00270205 39206
DIRECTV 9S              
1 29494U 06043A   17144.53989774 -.00000118  00000-0  00000-0 0  9991
2 29494   0.0126 314.7988 0002967 107.2054 273.5829  1.00269799 38901
OPTUS D1                
1 29495U 06043B   17144.72635233 -.00000116  00000-0  00000-0 0  9999
2 29495   0.0466 111.9375 0003174 308.5831 243.4883  1.00271273 38946
XM-4 (BLUES)            
1 29520U 06049A   17144.32640715 -.00000027  00000-0  00000-0 0  9992
2 29520   0.0062  58.9817 0000116 355.9075 189.5051  1.00271545 38799
BADR-4                  
1 29526U 06051A   17144.88216655  .00000139  00000-0  00000-0 0  9997
2 29526   0.0483 335.4055 0003642  48.6888 202.1309  1.00271293 18116
FENGYUN 2D              
1 29640U 06053A   17144.92484242 -.00000367  00000-0  10000-3 0  9998
2 29640   4.4105  64.4929 0004779 340.8179 293.8883  1.00262225 38361
WILDBLUE-1              
1 29643U 06054A   17144.56274456 -.00000054  00000-0  00000-0 0  9995
2 29643   0.0610 108.2817 0000810 271.9939 313.4864  1.00271953 38344
AMC-18                  
1 29644U 06054B   17144.53348361 -.00000094  00000-0  00000-0 0  9994
2 29644   0.0327  62.7074 0002234 359.7722 266.9496  1.00271333 38396
MEASAT-3                
1 29648U 06056A   17144.74438984 -.00000247  00000-0  00000-0 0  9994
2 29648   0.0571 120.4964 0003319 351.6476 129.8802  1.00271788 17268
INSAT-4B                
1 30793U 07007A   17144.80413057 -.00000263  00000-0  00000-0 0  9993
2 30793   0.0580 106.7760 0007474 326.8620 191.9166  1.00270891  9014
SKYNET 5A               
1 30794U 07007B   17144.92958965 -.00000278  00000-0  00000-0 0  9995
2 30794   0.0688  11.1209 0003568  54.1828 247.2787  1.00272457 37501
ANIK F3                 
1 31102U 07009A   17144.37341493 -.00000006  00000-0  00000-0 0  9991
2 31102   0.0210  52.3501 0001973   7.1882 198.3462  1.00271978 37136
ASTRA 1L                
1 31306U 07016A   17144.87670787  .00000114  00000-0  00000-0 0  9990
2 31306   0.0565 312.9216 0002583  51.0477 213.4796  1.00270135 11886
GALAXY 17 (G-17)        
1 31307U 07016B   17144.35393380 -.00000179  00000-0  00000-0 0  9997
2 31307   0.0361  15.4098 0003630  57.2674 205.8901  1.00270013 36756
ZHONGXING-6B            
1 31800U 07031A   17144.80475521 -.00000367  00000-0  00000-0 0  9999
2 31800   0.0130 307.2332 0002091 119.0569 221.5179  1.00266871 36244
DIRECTV 10              
1 31862U 07032A   17143.61508202 -.00000106  00000-0  00000-0 0  9990
2 31862   0.0160 283.8578 0000247 316.1511 119.9887  1.00269820 36203
SPACEWAY 3              
1 32018U 07036A   17143.60349729 -.00000155  00000-0  00000-0 0  9998
2 32018   0.0081  60.8378 0000083 296.2838   6.6042  1.00271104 35929
BSAT-3A                 
1 32019U 07036B   17144.02310725 -.00000355  00000-0  00000-0 0  9992
2 32019   0.0430 201.5698 0000784 357.0651 161.3741  1.00272138 17309
INSAT-4CR               
1 32050U 07037A   17144.59031906  .00000120  00000-0  00000-0 0  9990
2 32050   0.1381  97.0551 0002729 316.5268  89.1858  1.00271708 18209
OPTUS D2                
1 32252U 07044A   17144.86121758 -.00000189  00000-0  00000-0 0  9993
2 32252   0.0181 304.5749 0003288 118.4535 281.6659  1.00271546 35243
